STARLINK-30757          
1 58131U 23162P   25360.49961964  .00001470  00000+0  12380-3 0  9994
2 58131  43.0007 170.4950 0000897 245.7811 114.2938 15.02551571121297
STARLINK-30770          
1 58132U 23162Q   25360.46645861 -.00000104  00000+0  73738-5 0  9997
2 58132  43.0009 171.0841 0000978 251.6242 108.4494 15.02536878121284
STARLINK-30758          
1 58133U 23162R   25360.49853168 -.00000211  00000+0 -55055-6 0  9995
2 58133  43.0028 170.4908 0001212 261.5905  98.4800 15.02534451121296
STARLINK-30761          
1 58134U 23162S   25360.46313249  .00000957  00000+0  85888-4 0  9994
2 58134  43.0010 171.0690 0001141 264.5154  95.5558 15.02532182121289
STARLINK-30772          
1 58135U 23162T   25360.56290911 -.00001139  00000+0 -69263-4 0  9990
2 58135  43.0036 170.9592 0001601 275.8871  84.1789 15.02535884121292
STARLINK-30776          
1 58136U 23162U   25360.55402392 -.00004720  00000+0 -33444-3 0  9998
2 58136  43.0015 170.8715 0001625 271.2627  88.8029 15.02545696121291
STARLINK-30782          
1 58137U 23162V   25360.48976689  .00000490  00000+0  51360-4 0  9992
2 58137  43.0030 171.2699 0001368 259.4585 100.6103 15.02536777121285
STARLINK-30769          
1 58138U 23162W   25360.48310461  .00001102  00000+0  96621-4 0  9993
2 58138  43.0012 171.2202 0001209 255.5091 104.5618 15.02538748121283
STARLINK-30775          
1 58139U 23162X   25360.48644327 -.00001685  00000+0 -10975-3 0  9990
2 58139  42.9996 171.2442 0001071 263.2361  96.8359 15.02525198121282
STARLINK-30780          
1 58140U 23162Y   25360.54625895  .00000030  00000+0  17266-4 0  9990
2 58140  43.0029 170.8323 0000999 257.1874 102.8856 15.02535257121293
STARLINK-30802          
1 58150U 23166A   25360.00669043 -.00007452  00000+0 -23975-3 0  9999
2 58150  53.1584 202.1649 0001195  95.3235 264.7902 15.30194559121897
STARLINK-30834          
1 58151U 23166B   25359.88026758  .00017423  00000+0  59932-3 0  9993
2 58151  53.1582 202.5951 0001363  85.8837 274.2320 15.30182044121879
STARLINK-30833          
1 58152U 23166C   25360.00459069 -.00000569  00000+0 -70766-5 0  9990
2 58152  53.1596 202.1508 0001311  98.1513 261.9637 15.30192156121891
STARLINK-30831          
1 58153U 23166D   25360.57553488 -.00000422  00000+0 -21212-5 0  9993
2 58153  53.1586 199.3340 0001086  82.8967 277.2157 15.30201446121984
STARLINK-30797          
1 58154U 23166E   25360.27532437  .00000679  00000+0  35050-4 0  9998
2 58154  53.1587 200.7880 0001723 100.8915 259.2280 15.30198211121784
STARLINK-30804          
1 58155U 23166F   25360.25951952 -.00001945  00000+0 -53565-4 0  9994
2 58155  53.1595 200.9120 0000828 103.2674 256.8419 15.30204807121930
