[{"OBJECT_NAME":"STARLINK-30757","OBJECT_ID":"2023-162P","EPOCH":"2025-12-26T11:59:27.136896","MEAN_MOTION":15.02551571,"ECCENTRICITY":8.973e-5,"INCLINATION":43.0007,"RA_OF_ASC_NODE":170.495,"ARG_OF_PERICENTER":245.7811,"MEAN_ANOMALY":114.2938,"EPHEMERIS_TYPE":0,"CLASSIFICATION_TYPE":"U","NORAD_CAT_ID":58131,"ELEMENT_SET_NO":999,"REV_AT_EPOCH":12129,"BSTAR":0.00012379629,"MEAN_MOTION_DOT":1.47e-5,"MEAN_MOTION_DDOT":0},{"OBJECT_NAME":"STARLINK-30770","OBJECT_ID":"2023-162Q","EPOCH":"2025-12-26T11:11:42.023904","MEAN_MOTION":15.02536878,"ECCENTRICITY":9.788e-5,"INCLINATION":43.0009,"RA_OF_ASC_NODE":171.0841,"ARG_OF_PERICENTER":251.6242,"MEAN_ANOMALY":108.4494,"EPHEMERIS_TYPE":0,"CLASSIFICATION_TYPE":"U","NORAD_CAT_ID":58132,"ELEMENT_SET_NO":999,"REV_AT_EPOCH":12128,"BSTAR":7.373787e-6,"MEAN_MOTION_DOT":-1.04e-6,"MEAN_MOTION_DDOT":0},{"OBJECT_NAME":"STARLINK-30758","OBJECT_ID":"2023-162R","EPOCH":"2025-12-26T11:57:53.137152","MEAN_MOTION":15.02534451,"ECCENTRICITY":0.00012127,"INCLINATION":43.0028,"RA_OF_ASC_NODE":170.4908,"ARG_OF_PERICENTER":261.5905,"MEAN_ANOMALY":98.48,"EPHEMERIS_TYPE":0,"CLASSIFICATION_TYPE":"U","NORAD_CAT_ID":58133,"ELEMENT_SET_NO":999,"REV_AT_EPOCH":12129,"BSTAR":-5.50554e-7,"MEAN_MOTION_DOT":-2.11e-6,"MEAN_MOTION_DDOT":0},{"OBJECT_NAME":"STARLINK-30761","OBJECT_ID":"2023-162S","EPOCH":"2025-12-26T11:06:54.647136","MEAN_MOTION":15.02532182,"ECCENTRICITY":0.00011417,"INCLINATION":43.001,"RA_OF_ASC_NODE":171.069,"ARG_OF_PERICENTER":264.5154,"MEAN_ANOMALY":95.5558,"EPHEMERIS_TYPE":0,"CLASSIFICATION_TYPE":"U","NORAD_CAT_ID":58134,"ELEMENT_SET_NO":999,"REV_AT_EPOCH":12128,"BSTAR":8.5888438e-5,"MEAN_MOTION_DOT":9.57e-6,"MEAN_MOTION_DDOT":0},{"OBJECT_NAME":"STARLINK-30772","OBJECT_ID":"2023-162T","EPOCH":"2025-12-26T13:30:35.347104","MEAN_MOTION":15.02535884,"ECCENTRICITY":0.00016013,"INCLINATION":43.0036,"RA_OF_ASC_NODE":170.9592,"ARG_OF_PERICENTER":275.8871,"MEAN_ANOMALY":84.1789,"EPHEMERIS_TYPE":0,"CLASSIFICATION_TYPE":"U","NORAD_CAT_ID":58135,"ELEMENT_SET_NO":999,"REV_AT_EPOCH":12129,"BSTAR":-6.9262953e-5,"MEAN_MOTION_DOT":-1.139e-5,"MEAN_MOTION_DDOT":0},{"OBJECT_NAME":"STARLINK-30776","OBJECT_ID":"2023-162U","EPOCH":"2025-12-26T13:17:47.666688","MEAN_MOTION":15.02545696,"ECCENTRICITY":0.00016259,"INCLINATION":43.0015,"RA_OF_ASC_NODE":170.8715,"ARG_OF_PERICENTER":271.2627,"MEAN_ANOMALY":88.8029,"EPHEMERIS_TYPE":0,"CLASSIFICATION_TYPE":"U","NORAD_CAT_ID":58136,"ELEMENT_SET_NO":999,"REV_AT_EPOCH":12129,"BSTAR":-0.00033444032,"MEAN_MOTION_DOT":-4.72e-5,"MEAN_MOTION_DDOT":0},{"OBJECT_NAME":"STARLINK-30782","OBJECT_ID":"2023-162V","EPOCH":"2025-12-26T11:45:15.859296","MEAN_MOTION":15.02536777,"ECCENTRICITY":0.00013687,"INCLINATION":43.003,"RA_OF_ASC_NODE":171.2699,"ARG_OF_PERICENTER":259.4585,"MEAN_ANOMALY":100.6103,"EPHEMERIS_TYPE":0,"CLASSIFICATION_TYPE":"U","NORAD_CAT_ID":58137,"ELEMENT_SET_NO":999,"REV_AT_EPOCH":12128,"BSTAR":5.1359953e-5,"MEAN_MOTION_DOT":4.9e-6,"MEAN_MOTION_DDOT":0},{"OBJECT_NAME":"STARLINK-30769","OBJECT_ID":"2023-162W","EPOCH":"2025-12-26T11:35:40.238304","MEAN_MOTION":15.02538748,"ECCENTRICITY":0.00012093,"INCLINATION":43.0012,"RA_OF_ASC_NODE":171.2202,"ARG_OF_PERICENTER":255.5091,"MEAN_ANOMALY":104.5618,"EPHEMERIS_TYPE":0,"CLASSIFICATION_TYPE":"U","NORAD_CAT_ID":58138,"ELEMENT_SET_NO":999,"REV_AT_EPOCH":12128,"BSTAR":9.6621157e-5,"MEAN_MOTION_DOT":1.102e-5,"MEAN_MOTION_DDOT":0},{"OBJECT_NAME":"STARLINK-30775","OBJECT_ID":"2023-162X","EPOCH":"2025-12-26T11:40:28.698528","MEAN_MOTION":15.02525198,"ECCENTRICITY":0.00010713,"INCLINATION":42.9996,"RA_OF_ASC_NODE":171.2442,"ARG_OF_PERICENTER":263.2361,"MEAN_ANOMALY":96.8359,"EPHEMERIS_TYPE":0,"CLASSIFICATION_TYPE":"U","NORAD_CAT_ID":58139,"ELEMENT_SET_NO":999,"REV_AT_EPOCH":12128,"BSTAR":-0.00010974823,"MEAN_MOTION_DOT":-1.685e-5,"MEAN_MOTION_DDOT":0},{"OBJECT_NAME":"STARLINK-30780","OBJECT_ID":"2023-162Y","EPOCH":"2025-12-26T13:06:36.773280","MEAN_MOTION":15.02535257,"ECCENTRICITY":9.992e-5,"INCLINATION":43.0029,"RA_OF_ASC_NODE":170.8323,"ARG_OF_PERICENTER":257.1874,"MEAN_ANOMALY":102.8856,"EPHEMERIS_TYPE":0,"CLASSIFICATION_TYPE":"U","NORAD_CAT_ID":58140,"ELEMENT_SET_NO":999,"REV_AT_EPOCH":12129,"BSTAR":1.7266423e-5,"MEAN_MOTION_DOT":3.0e-7,"MEAN_MOTION_DDOT":0},{"OBJECT_NAME":"STARLINK-30802","OBJECT_ID":"2023-166A","EPOCH":"2025-12-26T00:09:38.053152","MEAN_MOTION":15.30194559,"ECCENTRICITY":0.00011956,"INCLINATION":53.1584,"RA_OF_ASC_NODE":202.1649,"ARG_OF_PERICENTER":95.3235,"MEAN_ANOMALY":264.7902,"EPHEMERIS_TYPE":0,"CLASSIFICATION_TYPE":"U","NORAD_CAT_ID":58150,"ELEMENT_SET_NO":999,"REV_AT_EPOCH":12189,"BSTAR":-0.00023975003,"MEAN_MOTION_DOT":-7.452e-5,"MEAN_MOTION_DDOT":0},{"OBJECT_NAME":"STARLINK-30834","OBJECT_ID":"2023-166B","EPOCH":"2025-12-25T21:07:35.118912","MEAN_MOTION":15.30182044,"ECCENTRICITY":0.0001363,"INCLINATION":53.1582,"RA_OF_ASC_NODE":202.5951,"ARG_OF_PERICENTER":85.8837,"MEAN_ANOMALY":274.232,"EPHEMERIS_TYPE":0,"CLASSIFICATION_TYPE":"U","NORAD_CAT_ID":58151,"ELEMENT_SET_NO":999,"REV_AT_EPOCH":12187,"BSTAR":0.00059932,"MEAN_MOTION_DOT":0.00017423,"MEAN_MOTION_DDOT":0},{"OBJECT_NAME":"STARLINK-30833","OBJECT_ID":"2023-166C","EPOCH":"2025-12-26T00:06:36.635616","MEAN_MOTION":15.30192156,"ECCENTRICITY":0.00013117,"INCLINATION":53.1596,"RA_OF_ASC_NODE":202.1508,"ARG_OF_PERICENTER":98.1513,"MEAN_ANOMALY":261.9637,"EPHEMERIS_TYPE":0,"CLASSIFICATION_TYPE":"U","NORAD_CAT_ID":58152,"ELEMENT_SET_NO":999,"REV_AT_EPOCH":12189,"BSTAR":-7.076572e-6,"MEAN_MOTION_DOT":-5.69e-6,"MEAN_MOTION_DDOT":0},{"OBJECT_NAME":"STARLINK-30831","OBJECT_ID":"2023-166D","EPOCH":"2025-12-26T13:48:46.213632","MEAN_MOTION":15.30201446,"ECCENTRICITY":0.00010863,"INCLINATION":53.1586,"RA_OF_ASC_NODE":199.334,"ARG_OF_PERICENTER":82.8967,"MEAN_ANOMALY":277.2157,"EPHEMERIS_TYPE":0,"CLASSIFICATION_TYPE":"U","NORAD_CAT_ID":58153,"ELEMENT_SET_NO":999,"REV_AT_EPOCH":12198,"BSTAR":-2.121175e-6,"MEAN_MOTION_DOT":-4.22e-6,"MEAN_MOTION_DDOT":0},{"OBJECT_NAME":"STARLINK-30797","OBJECT_ID":"2023-166E","EPOCH":"2025-12-26T06:36:28.025568","MEAN_MOTION":15.30198211,"ECCENTRICITY":0.00017235,"INCLINATION":53.1587,"RA_OF_ASC_NODE":200.788,"ARG_OF_PERICENTER":100.8915,"MEAN_ANOMALY":259.228,"EPHEMERIS_TYPE":0,"CLASSIFICATION_TYPE":"U","NORAD_CAT_ID":58154,"ELEMENT_SET_NO":999,"REV_AT_EPOCH":12178,"BSTAR":3.50505e-5,"MEAN_MOTION_DOT":6.79e-6,"MEAN_MOTION_DDOT":0},{"OBJECT_NAME":"STARLINK-30804","OBJECT_ID":"2023-166F","EPOCH":"2025-12-26T06:13:42.486528","MEAN_MOTION":15.30204807,"ECCENTRICITY":8.284e-5,"INCLINATION":53.1595,"RA_OF_ASC_NODE":200.912,"ARG_OF_PERICENTER":103.2674,"MEAN_ANOMALY":256.8419,"EPHEMERIS_TYPE":0,"CLASSIFICATION_TYPE":"U","NORAD_CAT_ID":58155,"ELEMENT_SET_NO":999,"REV_AT_EPOCH":12193,"BSTAR":-5.356532e-5,"MEAN_MOTION_DOT":-1.945e-5,"MEAN_MOTION_DDOT":0}]
